[{"OBJECT_NAME":"SJ-9B","OBJECT_ID":"2012-056B","EPOCH":"2026-03-09T22:20:09.891456","MEAN_MOTION":14.90900926,"ECCENTRICITY":0.00151866,"INCLINATION":97.5927,"RA_OF_ASC_NODE":56.7246,"ARG_OF_PERICENTER":178.8614,"MEAN_ANOMALY":181.2642,"EPHEMERIS_TYPE":0,"CLASSIFICATION_TYPE":"U","NORAD_CAT_ID":38861,"ELEMENT_SET_NO":999,"REV_AT_EPOCH":72493,"BSTAR":0.00027985041,"MEAN_MOTION_DOT":2.712e-5,"MEAN_MOTION_DDOT":0},{"OBJECT_NAME":"CZ-6A DEB","OBJECT_ID":"2022-151AAT","EPOCH":"2026-03-09T02:30:48.170016","MEAN_MOTION":14.72419564,"ECCENTRICITY":0.00958902,"INCLINATION":98.5926,"RA_OF_ASC_NODE":118.6515,"ARG_OF_PERICENTER":262.2874,"MEAN_ANOMALY":96.7434,"EPHEMERIS_TYPE":0,"CLASSIFICATION_TYPE":"U","NORAD_CAT_ID":55895,"ELEMENT_SET_NO":999,"REV_AT_EPOCH":16993,"BSTAR":0.0033438796,"MEAN_MOTION_DOT":0.00022794,"MEAN_MOTION_DDOT":0}]
